NORAD_CAT_ID,OBJECT_NAME,OBJECT_TYPE,EPOCH,MEAN_MOTION,ECCENTRICITY,INCLINATION,RA_OF_ASC_NODE,ARG_OF_PERICENTER,MEAN_ANOMALY,BSTAR,MEAN_MOTION_DOT,MEAN_MOTION_DDOT,TLE_LINE0,TLE_LINE1,TLE_LINE2,SEMIMAJOR_AXIS,PERIOD,APOGEE,PERIGEE,DECAYED
52835.0,STARLINK-4080,PAYLOAD,2024-07-19 09:51:41,15.0883964,0.0001399,53.2153,199.8999,90.9564,269.1589,1.4492e-05,-5.7e-07,0.0,0 STARLINK-4080,1 52835U 22062F   24201.41089666 -.00000057  00000-0  14492-4 0  9991,2 52835  53.2153 199.8999 0001399  90.9564 269.1589 15.08839640115464,6917.881,95.438,540.714,538.779,0.0
52835.0,STARLINK-4080,PAYLOAD,2024-07-20 06:31:42,15.08839501,0.0001393,53.2155,196.034,90.7317,269.3835,5.6357e-05,6.09e-06,0.0,0 STARLINK-4080,1 52835U 22062F   24202.27201561  .00000609  00000-0  56357-4 0  9994,2 52835  53.2155 196.0340 0001393  90.7317 269.3835 15.08839501115599,6917.882,95.438,540.711,538.783,0.0
52835.0,STARLINK-4080,PAYLOAD,2024-07-21 04:47:06,15.08831429,0.0001404,53.2161,191.871,89.2256,270.8897,2.7288e-05,1.46e-06,0.0,0 STARLINK-4080,1 52835U 22062F   24203.19938500  .00000146  00000-0  27288-4 0  9993,2 52835  53.2161 191.8710 0001404  89.2256 270.8897 15.08831429115730,6917.907,95.438,540.743,538.8,0.0
52835.0,STARLINK-4080,PAYLOAD,2024-07-21 06:22:29,15.08833442,0.0001391,53.2162,191.5739,89.1559,270.9592,4.2894e-05,3.95e-06,0.0,0 STARLINK-4080,1 52835U 22062F   24203.26562353  .00000395  00000-0  42894-4 0  9996,2 52835  53.2162 191.5739 0001391  89.1559 270.9592 15.08833442115740,6917.9,95.438,540.728,538.803,0.0
52835.0,STARLINK-4080,PAYLOAD,2024-07-22 07:48:39,15.08840456,0.0001335,53.2162,186.8169,91.0976,269.0169,3.8431e-05,3.24e-06,0.0,0 STARLINK-4080,1 52835U 22062F   24204.32546217  .00000324  00000-0  38431-4 0  9999,2 52835  53.2162 186.8169 0001335  91.0976 269.0169 15.08840456115907,6917.879,95.438,540.668,538.82,0.0
52835.0,STARLINK-4080,PAYLOAD,2024-07-23 04:28:40,15.08841957,0.0001314,53.2161,182.9509,94.3315,265.7827,9.7401e-05,1.263e-05,0.0,0 STARLINK-4080,1 52835U 22062F   24205.18658024  .00001263  00000-0  97401-4 0  9999,2 52835  53.2161 182.9509 0001314  94.3315 265.7827 15.08841957116037,6917.874,95.437,540.648,538.83,0.0
52835.0,STARLINK-4080,PAYLOAD,2024-07-23 15:36:23,15.08833885,0.0001368,53.2157,180.8685,90.4849,269.63,7.763e-05,9.48e-06,0.0,0 STARLINK-4080,1 52835U 22062F   24205.65026667  .00000948  00000-0  77630-4 0  9994,2 52835  53.2157 180.8685 0001368  90.4849 269.6300 15.08833885116100,6917.899,95.438,540.71,538.818,0.0
52835.0,STARLINK-4080,PAYLOAD,2024-07-24 04:19:29,15.08828517,0.0001569,53.2164,178.4866,90.873,269.2442,-7.071e-05,-1.413e-05,0.0,0 STARLINK-4080,1 52835U 22062F   24206.18019790 -.00001413  00000-0 -70710-4 0  9994,2 52835  53.2164 178.4866 0001569  90.8730 269.2442 15.08828517116185,6917.915,95.438,540.866,538.695,0.0
52835.0,STARLINK-4080,PAYLOAD,2024-07-24 07:30:15,15.08831918,0.0001511,53.2165,177.8906,90.5685,269.548,-3.8734e-05,-9.04e-06,0.0,0 STARLINK-4080,1 52835U 22062F   24206.31267518 -.00000904  00000-0 -38734-4 0  9996,2 52835  53.2165 177.8906 0001511  90.5685 269.5480 15.08831918116204,6917.905,95.438,540.815,538.725,0.0
52835.0,STARLINK-4080,PAYLOAD,2024-07-25 04:10:14,15.08850827,0.0001709,53.2144,174.0318,139.1262,220.9858,4.1922e-05,3.79e-06,0.0,0 STARLINK-4080,1 52835U 22062F   24207.17377876  .00000379  00000-0  41922-4 0  9997,2 52835  53.2144 174.0318 0001709 139.1262 220.9858 15.08850827116331,6917.847,95.437,540.895,538.53,0.0
52835.0,STARLINK-4080,PAYLOAD,2024-07-26 04:01:02,15.08826461,0.0001485,53.2151,169.5716,87.8252,272.291,0.00021813,3.184e-05,0.0,0 STARLINK-4080,1 52835U 22062F   24208.16739077  .00003184  00000-0  21813-3 0  9995,2 52835  53.2151 169.5716 0001485  87.8252 272.2910 15.08826461116481,6917.922,95.438,540.814,538.759,0.0
52835.0,STARLINK-4080,PAYLOAD,2024-07-26 07:11:48,15.08841401,0.0001449,53.2162,168.9729,87.1129,273.0029,9.989e-05,1.302e-05,0.0,0 STARLINK-4080,1 52835U 22062F   24208.29986590  .00001302  00000-0  99890-4 0  9994,2 52835  53.2162 168.9729 0001449  87.1129 273.0029 15.08841401116500,6917.876,95.437,540.744,538.739,0.0
52835.0,STARLINK-4080,PAYLOAD,2024-07-27 03:51:48,15.08849209,0.0001739,53.2171,165.1067,94.0664,266.0527,5.4454e-05,5.79e-06,0.0,0 STARLINK-4080,1 52835U 22062F   24209.16097939  .00000579  00000-0  54454-4 0  9993,2 52835  53.2171 165.1067 0001739  94.0664 266.0527 15.08849209116630,6917.852,95.437,540.92,538.514,0.0
52835.0,STARLINK-4080,PAYLOAD,2024-07-27 21:21:04,15.08809621,0.0001522,53.2164,161.8362,95.9059,264.2107,0.00030276,4.53e-05,0.0,0 STARLINK-4080,1 52835U 22062F   24209.88963551  .00004530  00000-0  30276-3 0  9990,2 52835  53.2164 161.8362 0001522  95.9059 264.2107 15.08809621116741,6917.973,95.439,540.891,538.785,0.0
52835.0,STARLINK-4080,PAYLOAD,2024-07-28 03:42:36,15.0883922,0.0001403,53.2161,160.6477,99.1508,260.9642,-4.7396e-05,-1.042e-05,0.0,0 STARLINK-4080,1 52835U 22062F   24210.15459026 -.00001042  00000-0 -47396-4 0  9998,2 52835  53.2161 160.6477 0001403  99.1508 260.9642 15.08839220116784,6917.883,95.438,540.718,538.777,0.0
52835.0,STARLINK-4080,PAYLOAD,2024-07-28 21:11:51,15.08852458,0.0001448,53.2175,157.3795,106.7134,253.4017,-0.00030169,-5.088e-05,0.0,0 STARLINK-4080,1 52835U 22062F   24210.88323803 -.00005088  00000-0 -30169-3 0  9994,2 52835  53.2175 157.3795 0001448 106.7134 253.4017 15.08852458116897,6917.842,95.437,540.709,538.706,0.0
52835.0,STARLINK-4080,PAYLOAD,2024-07-29 13:05:42,15.08833947,0.0001497,53.2168,154.4059,101.468,258.648,6.1076e-05,6.84e-06,0.0,0 STARLINK-4080,1 52835U 22062F   24211.54563474  .00000684  00000-0  61076-4 0  9995,2 52835  53.2168 154.4059 0001497 101.4680 258.6480 15.08833947116996,6917.899,95.438,540.8,538.728,0.0
52835.0,STARLINK-4080,PAYLOAD,2024-07-30 03:24:11,15.08836952,0.0001607,53.2177,151.7306,111.3987,248.7177,8.8896e-05,1.127e-05,0.0,0 STARLINK-4080,1 52835U 22062F   24212.14179464  .00001127  00000-0  88896-4 0  9996,2 52835  53.2177 151.7306 0001607 111.3987 248.7177 15.08836952117087,6917.89,95.438,540.866,538.643,0.0
52835.0,STARLINK-4080,PAYLOAD,2024-07-31 12:47:17,15.08836697,0.0001578,53.217,145.4857,87.1918,272.9255,1.8961e-05,1.4e-07,0.0,0 STARLINK-4080,1 52835U 22062F   24213.53284000  .00000014  00000-0  18961-4 0  9993,2 52835  53.2170 145.4857 0001578  87.1918 272.9255 15.08836697117297,6917.89,95.438,540.847,538.664,0.0
52835.0,STARLINK-4080,PAYLOAD,2024-07-31 19:08:50,15.08834168,0.0001631,53.217,144.2959,83.548,276.5698,2.2311e-06,-2.53e-06,0.0,0 STARLINK-4080,1 52835U 22062F   24213.79780196 -.00000253  00000-0  22311-5 0  9999,2 52835  53.2170 144.2959 0001631  83.5480 276.5698 15.08834168117338,6917.898,95.438,540.892,538.635,0.0
52835.0,STARLINK-4080,PAYLOAD,2024-08-01 12:38:03,15.08847153,0.0001706,53.2174,141.0241,84.3696,275.749,5.9749e-05,6.63e-06,0.0,0 STARLINK-4080,1 52835U 22062F   24214.52643309  .00000663  00000-0  59749-4 0  9993,2 52835  53.2174 141.0241 0001706  84.3696 275.7490 15.08847153117443,6917.859,95.437,540.904,538.543,0.0
52835.0,STARLINK-4080,PAYLOAD,2024-08-01 18:59:35,15.08855754,0.0001385,53.2169,139.8345,84.8852,275.2298,2.5792e-05,1.23e-06,0.0,0 STARLINK-4080,1 52835U 22062F   24214.79138756  .00000123  00000-0  25792-4 0  9999,2 52835  53.2169 139.8345 0001385  84.8852 275.2298 15.08855754117480,6917.832,95.437,540.655,538.739,0.0
52835.0,STARLINK-4080,PAYLOAD,2024-08-02 01:21:07,15.08858506,0.0001134,53.2169,138.6402,101.5227,258.5893,5.4094e-05,5.74e-06,0.0,0 STARLINK-4080,1 52835U 22062F   24215.05634062  .00000574  00000-0  54094-4 0  9997,2 52835  53.2169 138.6402 0001134 101.5227 258.5893 15.08858506117524,6917.824,95.436,540.473,538.904,0.0
52835.0,STARLINK-4080,PAYLOAD,2024-08-02 12:28:49,15.08851666,0.0001289,53.2146,136.5633,110.7654,249.3476,6.3694e-07,-2.78e-06,0.0,0 STARLINK-4080,1 52835U 22062F   24215.52002309 -.00000278  00000-0  63694-6 0  9992,2 52835  53.2146 136.5633 0001289 110.7654 249.3476 15.08851666117591,6917.845,95.437,540.601,538.818,0.0
52835.0,STARLINK-4080,PAYLOAD,2024-08-02 18:50:23,15.08838677,0.0002477,53.2163,135.3729,90.6114,269.5162,0.00010493,1.382e-05,0.0,0 STARLINK-4080,1 52835U 22062F   24215.78499516  .00001382  00000-0  10493-3 0  9992,2 52835  53.2163 135.3729 0002477  90.6114 269.5162 15.08838677117638,6917.884,95.438,541.463,538.036,0.0
52835.0,STARLINK-4080,PAYLOAD,2024-08-02 22:01:10,15.0882979,0.0002001,53.2179,134.7782,97.5647,262.5573,3.5048e-05,2.7e-06,0.0,0 STARLINK-4080,1 52835U 22062F   24215.91748091  .00000270  00000-0  35048-4 0  9991,2 52835  53.2179 134.7782 0002001  97.5647 262.5573 15.08829790117654,6917.912,95.438,541.161,538.392,0.0
52835.0,STARLINK-4080,PAYLOAD,2024-08-03 01:11:56,15.08828254,0.0001658,53.2169,134.1837,100.3839,259.734,2.236e-05,6.8e-07,0.0,0 STARLINK-4080,1 52835U 22062F   24216.04996200  .00000068  00000-0  22360-4 0  9991,2 52835  53.2169 134.1837 0001658 100.3839 259.7340 15.08828254117677,6917.916,95.438,540.928,538.634,0.0
52835.0,STARLINK-4080,PAYLOAD,2024-08-03 18:41:10,15.08839298,0.0001577,53.2178,130.9118,109.0405,251.0758,-5.1493e-05,-1.107e-05,0.0,0 STARLINK-4080,1 52835U 22062F   24216.77859825 -.00001107  00000-0 -51493-4 0  9998,2 52835  53.2178 130.9118 0001577 109.0405 251.0758 15.08839298117788,6917.883,95.438,540.838,538.657,0.0
52835.0,STARLINK-4080,PAYLOAD,2024-08-03 21:51:56,15.08844624,0.0001585,53.2172,130.3178,106.481,253.6357,-2.6658e-05,-7.12e-06,0.0,0 STARLINK-4080,1 52835U 22062F   24216.91107428 -.00000712  00000-0 -26658-4 0  9995,2 52835  53.2172 130.3178 0001585 106.4810 253.6357 15.08844624117807,6917.866,95.437,540.828,538.635,0.0
52835.0,STARLINK-4080,PAYLOAD,2024-08-04 04:13:28,15.08853662,0.0001559,53.2165,129.1254,111.782,248.3338,-1.4955e-05,-5.26e-06,0.0,0 STARLINK-4080,1 52835U 22062F   24217.17602695 -.00000526  00000-0 -14955-4 0  9990,2 52835  53.2165 129.1254 0001559 111.7820 248.3338 15.08853662117847,6917.839,95.437,540.782,538.625,0.0
